     2.100          NAVIGATION                              RINEX VERSION / TYPE
fic2rin                                 07/20/2013 00:22:42 PGM / RUN BY / DATE
                                                            END OF HEADER
15 13  7 19  4  0  0.0 -.128244981170D-03 -.170530256582D-11  .000000000000D+00
     .660000000000D+02  .126343750000D+03  .481412909923D-08 -.251582922867D+00
     .641867518425D-05  .547609850764D-02  .892393290997D-05  .515380073738D+04
     .446400000000D+06  .104308128357D-06 -.280168440152D+00  .279396772385D-07
     .940502150958D+00  .197093750000D+03  .161619277554D+00 -.829641700764D-08
    -.126433837905D-09  .100000000000D+01  .174900000000D+04  .000000000000D+00
     .240000000000D+01  .000000000000D+00 -.102445483208D-07  .660000000000D+02
     .439206000000D+06  .400000000000D+01
16 13  7 19  4  0  0.0 -.249997247010D-03  .568434188608D-12  .000000000000D+00
     .450000000000D+02 -.116093750000D+03  .379372945263D-08  .147601939866D+01
    -.590831041336D-05  .709963834379D-02  .647641718388D-05  .515367813301D+04
     .446400000000D+06 -.838190317154D-07  .189560629730D+01  .502914190292D-07
     .985162634881D+00  .269781250000D+03  .130909769992D+00 -.779139597149D-08
    -.207865801302D-09  .100000000000D+01  .174900000000D+04  .000000000000D+00
     .240000000000D+01  .000000000000D+00 -.977888703346D-08  .450000000000D+02
     .439206000000D+06  .400000000000D+01
17 13  7 19  4  0  0.0 -.239489600062D-05 -.386535248253D-11  .000000000000D+00
     .730000000000D+02 -.247812500000D+02  .434303804782D-08  .499040968271D+00
    -.145658850670D-05  .839906919282D-02  .103097409010D-04  .515365920639D+04
     .446400000000D+06 -.184401869774D-06  .293170003159D+01  .113621354103D-06
     .966257960431D+00  .185937500000D+03 -.219170856614D+01 -.793533053837D-08
     .516092925913D-09  .100000000000D+01  .174900000000D+04  .000000000000D+00
     .340000000000D+01  .000000000000D+00 -.102445483208D-07  .730000000000D+02
     .439206000000D+06  .400000000000D+01
18 13  7 19  4  0  0.0  .264354050159D-03  .193267624127D-11  .000000000000D+00
     .990000000000D+02 -.593750000000D+01  .540736809573D-08  .199589843830D+01
    -.528991222382D-06  .145594814094D-01  .101663172245D-04  .515361637688D+04
     .446400000000D+06 -.152736902237D-06 -.129851651293D+01 -.394880771637D-06
     .926673437977D+00  .166312500000D+03 -.209084338404D+01 -.824927218673D-08
    -.581452791271D-09  .100000000000D+01  .174900000000D+04  .000000000000D+00
     .240000000000D+01  .000000000000D+00 -.111758708954D-07  .990000000000D+02
     .439206000000D+06  .400000000000D+01
19 13  7 19  4  0  0.0 -.389884226024D-03 -.295585778076D-11  .000000000000D+00
     .550000000000D+02 -.271250000000D+02  .439196865741D-08 -.268853035059D+00
    -.126846134663D-05  .945228757337D-02  .970624387264D-05  .515372402954D+04
     .446400000000D+06  .128522515297D-06  .298346882568D+01  .745058059692D-08
     .963482396681D+00  .193968750000D+03  .341596921820D+00 -.799783314185D-08
     .551451541599D-09  .100000000000D+01  .174900000000D+04  .000000000000D+00
     .240000000000D+01  .000000000000D+00 -.149011611938D-07  .550000000000D+02
     .439206000000D+06  .400000000000D+01
20 13  7 19  4  0  0.0  .110229477286D-03  .227373675443D-11  .000000000000D+00
     .610000000000D+02 -.806250000000D+01  .539558189050D-08  .249642625068D+01
    -.497326254845D-06  .537839171011D-02  .906549394131D-05  .515370776939D+04
     .446400000000D+06 -.111758708954D-07 -.135192202416D+01 -.689178705215D-07
     .927445348164D+00  .184125000000D+03  .128867828351D+01 -.826963017758D-08
    -.506092509356D-09  .100000000000D+01  .174900000000D+04  .000000000000D+00
     .240000000000D+01  .000000000000D+00 -.791624188423D-08  .610000000000D+02
     .439206000000D+06  .400000000000D+01
21 13  7 19  4  0  0.0 -.309085939080D-03 -.193267624127D-11  .000000000000D+00
     .460000000000D+02  .406250000000D+00  .559023285564D-08  .303039719250D+01
    -.184401869774D-06  .204560146667D-01  .580772757530D-05  .515365025711D+04
     .446400000000D+06  .912696123123D-07 -.234615602533D+01 -.311061739922D-06
     .931613782551D+00  .251906250000D+03 -.211866113266D+01 -.815498254490D-08
     .203222750758D-09  .100000000000D+01  .174900000000D+04  .000000000000D+00
     .240000000000D+01  .000000000000D+00 -.111758708954D-07  .460000000000D+02
     .439206000000D+06  .400000000000D+01
22 13  7 19  4  0  0.0  .176227185875D-03  .170530256582D-11  .000000000000D+00
     .620000000000D+02 -.784375000000D+01  .557487507307D-08  .141148287585D+01
    -.372529029846D-06  .679517758545D-02  .980496406555D-05  .515364710617D+04
     .446400000000D+06 -.186264514923D-06 -.129601042893D+01 -.502914190292D-07
     .924424653472D+00  .174312500000D+03 -.203404698085D+01 -.849035365731D-08
    -.588595945955D-09  .100000000000D+01  .174900000000D+04  .000000000000D+00
     .240000000000D+01  .000000000000D+00 -.172294676304D-07  .620000000000D+02
     .439206000000D+06  .400000000000D+01
23 13  7 19  4  0  0.0  .656386837363D-04 -.352429196937D-11  .000000000000D+00
     .450000000000D+02  .104406250000D+03  .443339895458D-08 -.736937097302D+00
     .537186861038D-05  .878153822850D-02  .841915607452D-05  .515369089317D+04
     .446400000000D+06  .165775418282D-06 -.238239486145D+00 -.167638063431D-07
     .955484619152D+00  .214343750000D+03 -.285803349410D+01 -.806355016495D-08
    -.928610108910D-10  .100000000000D+01  .174900000000D+04  .000000000000D+00
     .240000000000D+01  .000000000000D+00 -.200234353542D-07  .450000000000D+02
     .439206000000D+06  .400000000000D+01
24 13  7 19  4  0  0.0 -.102263875306D-04 -.682121026330D-12  .000000000000D+00
     .300000000000D+02  .324062500000D+02  .470126725522D-08 -.159458955559D+01
     .179745256901D-05  .951613415964D-03  .127032399178D-05  .515367119789D+04
     .446400000000D+06 -.651925802231D-07  .787997264118D+00 -.670552253723D-07
     .958794202130D+00  .356625000000D+03  .386050669086D+00 -.850642575535D-08
    -.478591363823D-10  .100000000000D+01  .174900000000D+04  .000000000000D+00
     .240000000000D+01  .000000000000D+00  .325962901115D-08  .300000000000D+02
     .439206000000D+06  .400000000000D+01
25 13  7 19  4  0  0.0  .124119687825D-03  .511590769747D-11  .000000000000D+00
     .134000000000D+03 -.135562500000D+03  .400695261995D-08  .268686464866D+01
    -.694952905178D-05  .274304451887D-02  .680796802044D-05  .515375765038D+04
     .446400000000D+06  .391155481339D-07  .183831955177D+01 -.204890966415D-07
     .973276400617D+00  .254218750000D+03  .736591607254D+00 -.799283293357D-08
    -.131076888450D-09  .100000000000D+01  .174900000000D+04  .000000000000D+00
     .240000000000D+01  .000000000000D+00  .558793544769D-08  .134000000000D+03
     .439206000000D+06  .400000000000D+01
26 13  7 19  4  0  0.0  .103021040559D-03  .168256519828D-10  .000000000000D+00
     .810000000000D+02  .130968750000D+03  .411195699380D-08 -.747522989036D+00
     .703334808350D-05  .210726435762D-01  .808946788311D-05  .515370005798D+04
     .446400000000D+06 -.135973095894D-06 -.156582577881D+00  .335276126862D-06
     .978735061455D+00  .236500000000D+03  .124647082648D+01 -.823069998455D-08
    -.132148361653D-10  .100000000000D+01  .174900000000D+04  .000000000000D+00
     .240000000000D+01  .000000000000D+00 -.605359673500D-08  .810000000000D+02
     .439206000000D+06  .400000000000D+01
27 13  7 19  4  0  0.0 -.126031227410D-04 -.488853402203D-11  .000000000000D+00
     .880000000000D+02 -.417187500000D+02  .435553856852D-08 -.260790292265D+00
    -.209175050259D-05  .278548919596D-03  .103935599327D-04  .515366418648D+04
     .446400000000D+06  .298023223877D-07  .288818660271D+01 -.111758708954D-07
     .960825304425D+00  .180781250000D+03  .862360551453D+00 -.782461164077D-08
     .508235455761D-09  .100000000000D+01  .174900000000D+04  .000000000000D+00
     .240000000000D+01  .000000000000D+00  .372529029846D-08  .880000000000D+02
     .439206000000D+06  .400000000000D+01
28 13  7 19  4  0  0.0  .276901759207D-03  .318323145621D-11  .000000000000D+00
     .100000000000D+02 -.109093750000D+03  .387444710056D-08  .128643540774D+01
    -.588223338127D-05  .186283852672D-01  .753067433834D-05  .515365247345D+04
     .446400000000D+06 -.324100255966D-06  .190178636401D+01 -.273808836937D-06
     .983617595895D+00  .250500000000D+03 -.176764957375D+01 -.804283501636D-08
    -.134648465792D-09  .100000000000D+01  .174900000000D+04  .000000000000D+00
     .240000000000D+01  .000000000000D+00 -.107102096081D-07  .100000000000D+02
     .439206000000D+06  .400000000000D+01
29 13  7 19  4  0  0.0  .454741064459D-03  .329691829393D-11  .000000000000D+00
     .780000000000D+02 -.372500000000D+02  .419696053454D-08 -.298197393992D+01
    -.196509063244D-05  .169102475047D-02  .106040388346D-04  .515361789131D+04
     .446400000000D+06  .316649675369D-07  .294052325333D+01  .800937414169D-07
     .966911187001D+00  .174156250000D+03 -.988370356335D+00 -.775067998979D-08
     .631454874059D-09  .100000000000D+01  .174900000000D+04  .000000000000D+00
     .240000000000D+01  .000000000000D+00 -.931322574615D-08  .780000000000D+02
     .439206000000D+06  .400000000000D+01
30 13  7 19  4  0  0.0 -.169544946402D-03  .113686837722D-11  .000000000000D+00
     .940000000000D+02 -.125406250000D+03  .523307512144D-08  .141560580909D+01
    -.653229653835D-05  .636707979720D-02  .667758285999D-05  .515369487190D+04
     .446400000000D+06 -.558793544769D-07  .185519336676D+01 -.465661287308D-07
     .978097934299D+00  .261875000000D+03  .882565784945D+00 -.799961893052D-08
    -.208580116771D-09  .100000000000D+01  .174900000000D+04  .000000000000D+00
     .485000000000D+01  .630000000000D+02 -.190921127796D-07  .940000000000D+02
     .439206000000D+06  .400000000000D+01
